CCSDS_OMM_VERS = 2.0
CREATION_DATE  = 
ORIGINATOR     = 

OBJECT_NAME    = COSMOS 2058
OBJECT_ID      = 1990-010A
CENTER_NAME    = EARTH
REF_FRAME      = TEME
TIME_SYSTEM    = UTC
MEAN_ELEMENT_THEORY = SGP/SGP4

EPOCH          = 2026-03-29T02:42:01.297728
MEAN_MOTION    = 15.11496351
ECCENTRICITY   = .0007459
INCLINATION    = 82.4691
RA_OF_ASC_NODE = 28.2885
ARG_OF_PERICENTER = 266.1506
MEAN_ANOMALY   = 93.8871

EPHEMERIS_TYPE = 0
CLASSIFICATION_TYPE = U
NORAD_CAT_ID   = 20465
ELEMENT_SET_NO = 999
REV_AT_EPOCH   = 94517
BSTAR          = .3379E-3
MEAN_MOTION_DOT = .575E-4
MEAN_MOTION_DDOT = 0

CCSDS_OMM_VERS = 2.0
CREATION_DATE  = 
ORIGINATOR     = 

OBJECT_NAME    = SL-14 R/B
OBJECT_ID      = 1990-010B
CENTER_NAME    = EARTH
REF_FRAME      = TEME
TIME_SYSTEM    = UTC
MEAN_ELEMENT_THEORY = SGP/SGP4

EPOCH          = 2026-03-29T04:17:34.166688
MEAN_MOTION    = 14.83587281
ECCENTRICITY   = .0018612
INCLINATION    = 82.4998
RA_OF_ASC_NODE = 249.0765
ARG_OF_PERICENTER = 233.1178
MEAN_ANOMALY   = 126.8332

EPHEMERIS_TYPE = 0
CLASSIFICATION_TYPE = U
NORAD_CAT_ID   = 20466
ELEMENT_SET_NO = 999
REV_AT_EPOCH   = 93137
BSTAR          = .76173E-4
MEAN_MOTION_DOT = .653E-5
MEAN_MOTION_DDOT = 0

CCSDS_OMM_VERS = 2.0
CREATION_DATE  = 
ORIGINATOR     = 

OBJECT_NAME    = SL-14 R/B
OBJECT_ID      = 1990-018B
CENTER_NAME    = EARTH
REF_FRAME      = TEME
TIME_SYSTEM    = UTC
MEAN_ELEMENT_THEORY = SGP/SGP4

EPOCH          = 2026-03-28T19:26:52.412640
MEAN_MOTION    = 14.82163657
ECCENTRICITY   = .00169404
INCLINATION    = 82.5237
RA_OF_ASC_NODE = 205.2213
ARG_OF_PERICENTER = 33.5844
MEAN_ANOMALY   = 326.6441

EPHEMERIS_TYPE = 0
CLASSIFICATION_TYPE = U
NORAD_CAT_ID   = 20511
ELEMENT_SET_NO = 999
REV_AT_EPOCH   = 92541
BSTAR          = .59038061E-4
MEAN_MOTION_DOT = .495E-5
MEAN_MOTION_DDOT = 0

CCSDS_OMM_VERS = 2.0
CREATION_DATE  = 
ORIGINATOR     = 

OBJECT_NAME    = HST
OBJECT_ID      = 1990-037B
CENTER_NAME    = EARTH
REF_FRAME      = TEME
TIME_SYSTEM    = UTC
MEAN_ELEMENT_THEORY = SGP/SGP4

EPOCH          = 2026-03-29T04:32:59.354304
MEAN_MOTION    = 15.29783443
ECCENTRICITY   = .0001756
INCLINATION    = 28.4724
RA_OF_ASC_NODE = 266.9491
ARG_OF_PERICENTER = 354.8838
MEAN_ANOMALY   = 5.1740

EPHEMERIS_TYPE = 0
CLASSIFICATION_TYPE = U
NORAD_CAT_ID   = 20580
ELEMENT_SET_NO = 999
REV_AT_EPOCH   = 77630
BSTAR          = .34286E-3
MEAN_MOTION_DOT = .10418E-3
MEAN_MOTION_DDOT = 0

CCSDS_OMM_VERS = 2.0
CREATION_DATE  = 
ORIGINATOR     = 

OBJECT_NAME    = SL-16 R/B
OBJECT_ID      = 1990-046B
CENTER_NAME    = EARTH
REF_FRAME      = TEME
TIME_SYSTEM    = UTC
MEAN_ELEMENT_THEORY = SGP/SGP4

EPOCH          = 2026-03-29T04:59:42.995328
MEAN_MOTION    = 14.15016510
ECCENTRICITY   = .0016352
INCLINATION    = 70.9977
RA_OF_ASC_NODE = 256.9174
ARG_OF_PERICENTER = 274.0604
MEAN_ANOMALY   = 85.8650

EPHEMERIS_TYPE = 0
CLASSIFICATION_TYPE = U
NORAD_CAT_ID   = 20625
ELEMENT_SET_NO = 999
REV_AT_EPOCH   = 85115
BSTAR          = .14697E-3
MEAN_MOTION_DOT = .237E-5
MEAN_MOTION_DDOT = 0

CCSDS_OMM_VERS = 2.0
CREATION_DATE  = 
ORIGINATOR     = 

OBJECT_NAME    = COSMOS 2084
OBJECT_ID      = 1990-055A
CENTER_NAME    = EARTH
REF_FRAME      = TEME
TIME_SYSTEM    = UTC
MEAN_ELEMENT_THEORY = SGP/SGP4

EPOCH          = 2026-03-28T20:22:04.628352
MEAN_MOTION    = 15.05754696
ECCENTRICITY   = .00140427
INCLINATION    = 62.7892
RA_OF_ASC_NODE = 270.2268
ARG_OF_PERICENTER = 195.9981
MEAN_ANOMALY   = 164.0678

EPHEMERIS_TYPE = 0
CLASSIFICATION_TYPE = U
NORAD_CAT_ID   = 20663
ELEMENT_SET_NO = 999
REV_AT_EPOCH   = 93920
BSTAR          = .23409206E-3
MEAN_MOTION_DOT = .3212E-4
MEAN_MOTION_DDOT = 0

CCSDS_OMM_VERS = 2.0
CREATION_DATE  = 
ORIGINATOR     = 

OBJECT_NAME    = SL-6 R/B(2)
OBJECT_ID      = 1990-055D
CENTER_NAME    = EARTH
REF_FRAME      = TEME
TIME_SYSTEM    = UTC
MEAN_ELEMENT_THEORY = SGP/SGP4

EPOCH          = 2026-03-29T04:33:43.216128
MEAN_MOTION    = 15.03688635
ECCENTRICITY   = .0027993
INCLINATION    = 62.7833
RA_OF_ASC_NODE = 187.5315
ARG_OF_PERICENTER = 351.4343
MEAN_ANOMALY   = 8.6275

EPHEMERIS_TYPE = 0
CLASSIFICATION_TYPE = U
NORAD_CAT_ID   = 20666
ELEMENT_SET_NO = 999
REV_AT_EPOCH   = 94112
BSTAR          = .2071E-3
MEAN_MOTION_DOT = .2673E-4
MEAN_MOTION_DDOT = 0

CCSDS_OMM_VERS = 2.0
CREATION_DATE  = 
ORIGINATOR     = 

OBJECT_NAME    = SL-8 R/B
OBJECT_ID      = 1990-078B
CENTER_NAME    = EARTH
REF_FRAME      = TEME
TIME_SYSTEM    = UTC
MEAN_ELEMENT_THEORY = SGP/SGP4

EPOCH          = 2026-03-29T03:00:56.614464
MEAN_MOTION    = 14.89640484
ECCENTRICITY   = .0358402
INCLINATION    = 82.9022
RA_OF_ASC_NODE = 233.8202
ARG_OF_PERICENTER = 308.4521
MEAN_ANOMALY   = 48.5028

EPHEMERIS_TYPE = 0
CLASSIFICATION_TYPE = U
NORAD_CAT_ID   = 20775
ELEMENT_SET_NO = 999
REV_AT_EPOCH   = 81219
BSTAR          = .39012E-3
MEAN_MOTION_DOT = .13166E-3
MEAN_MOTION_DDOT = 0

CCSDS_OMM_VERS = 2.0
CREATION_DATE  = 
ORIGINATOR     = 

OBJECT_NAME    = SL-8 R/B
OBJECT_ID      = 1991-006B
CENTER_NAME    = EARTH
REF_FRAME      = TEME
TIME_SYSTEM    = UTC
MEAN_ELEMENT_THEORY = SGP/SGP4

EPOCH          = 2026-03-29T05:39:42.477984
MEAN_MOTION    = 13.77497249
ECCENTRICITY   = .0021819
INCLINATION    = 82.9444
RA_OF_ASC_NODE = 155.5141
ARG_OF_PERICENTER = 343.9870
MEAN_ANOMALY   = 75.6786

EPHEMERIS_TYPE = 0
CLASSIFICATION_TYPE = U
NORAD_CAT_ID   = 21088
ELEMENT_SET_NO = 999
REV_AT_EPOCH   = 76676
BSTAR          = .84796E-4
MEAN_MOTION_DOT = .1E-5
MEAN_MOTION_DDOT = 0

CCSDS_OMM_VERS = 2.0
CREATION_DATE  = 
ORIGINATOR     = 

OBJECT_NAME    = OKEAN-3
OBJECT_ID      = 1991-039A
CENTER_NAME    = EARTH
REF_FRAME      = TEME
TIME_SYSTEM    = UTC
MEAN_ELEMENT_THEORY = SGP/SGP4

EPOCH          = 2026-03-29T02:16:41.469888
MEAN_MOTION    = 15.04915118
ECCENTRICITY   = .0012357
INCLINATION    = 82.5163
RA_OF_ASC_NODE = 318.0417
ARG_OF_PERICENTER = 265.0921
MEAN_ANOMALY   = 94.8895

EPHEMERIS_TYPE = 0
CLASSIFICATION_TYPE = U
NORAD_CAT_ID   = 21397
ELEMENT_SET_NO = 999
REV_AT_EPOCH   = 86795
BSTAR          = .18696E-3
MEAN_MOTION_DOT = .2677E-4
MEAN_MOTION_DDOT = 0

CCSDS_OMM_VERS = 2.0
CREATION_DATE  = 
ORIGINATOR     = 

OBJECT_NAME    = COSMOS 2151
OBJECT_ID      = 1991-042A
CENTER_NAME    = EARTH
REF_FRAME      = TEME
TIME_SYSTEM    = UTC
MEAN_ELEMENT_THEORY = SGP/SGP4

EPOCH          = 2026-03-29T03:50:50.810784
MEAN_MOTION    = 15.00189311
ECCENTRICITY   = .0012335
INCLINATION    = 82.4946
RA_OF_ASC_NODE = 64.8882
ARG_OF_PERICENTER = 2.1871
MEAN_ANOMALY   = 357.9405

EPHEMERIS_TYPE = 0
CLASSIFICATION_TYPE = U
NORAD_CAT_ID   = 21422
ELEMENT_SET_NO = 999
REV_AT_EPOCH   = 86611
BSTAR          = .23272E-3
MEAN_MOTION_DOT = .2938E-4
MEAN_MOTION_DDOT = 0

CCSDS_OMM_VERS = 2.0
CREATION_DATE  = 
ORIGINATOR     = 

OBJECT_NAME    = SL-14 R/B
OBJECT_ID      = 1991-042B
CENTER_NAME    = EARTH
REF_FRAME      = TEME
TIME_SYSTEM    = UTC
MEAN_ELEMENT_THEORY = SGP/SGP4

EPOCH          = 2026-03-29T01:40:48.787968
MEAN_MOTION    = 14.81848936
ECCENTRICITY   = .0017235
INCLINATION    = 82.4956
RA_OF_ASC_NODE = 202.0127
ARG_OF_PERICENTER = 172.6233
MEAN_ANOMALY   = 187.5238

EPHEMERIS_TYPE = 0
CLASSIFICATION_TYPE = U
NORAD_CAT_ID   = 21423
ELEMENT_SET_NO = 999
REV_AT_EPOCH   = 85594
BSTAR          = .63049E-4
MEAN_MOTION_DOT = .523E-5
MEAN_MOTION_DDOT = 0

