COSMOS 2058             
1 20465U 90010A   26088.11251502  .00005750  00000+0  33790-3 0  9999
2 20465  82.4691  28.2885 0007459 266.1506  93.8871 15.11496351945171
SL-14 R/B               
1 20466U 90010B   26088.17886767  .00000653  00000+0  76173-4 0  9993
2 20466  82.4998 249.0765 0018612 233.1178 126.8332 14.83587281931371
SL-14 R/B               
1 20511U 90018B   26087.81032885  .00000495  00000+0  59038-4 0  9991
2 20511  82.5237 205.2213 0016940  33.5844 326.6441 14.82163657925410
HST                     
1 20580U 90037B   26088.18957586  .00010418  00000+0  34286-3 0  9996
2 20580  28.4724 266.9491 0001756 354.8838   5.1740 15.29783443776305
SL-16 R/B               
1 20625U 90046B   26088.20813652  .00000237  00000+0  14697-3 0  9996
2 20625  70.9977 256.9174 0016352 274.0604  85.8650 14.15016510851156
COSMOS 2084             
1 20663U 90055A   26087.84866468  .00003212  00000+0  23409-3 0  9997
2 20663  62.7892 270.2268 0014042 195.9981 164.0678 15.05754696939206
SL-6 R/B(2)             
1 20666U 90055D   26088.19008352  .00002673  00000+0  20710-3 0  9991
2 20666  62.7833 187.5315 0027993 351.4343   8.6275 15.03688635941124
SL-8 R/B                
1 20775U 90078B   26088.12565526  .00013166  00000+0  39012-3 0  9995
2 20775  82.9022 233.8202 0358402 308.4521  48.5028 14.89640484812197
SL-8 R/B                
1 21088U 91006B   26088.23590831  .00000100  00000+0  84796-4 0  9998
2 21088  82.9444 155.5141 0021819 343.9870  75.6786 13.77497249766763
OKEAN-3                 
1 21397U 91039A   26088.09492442  .00002677  00000+0  18696-3 0  9996
2 21397  82.5163 318.0417 0012357 265.0921  94.8895 15.04915118867959
COSMOS 2151             
1 21422U 91042A   26088.16031031  .00002938  00000+0  23272-3 0  9996
2 21422  82.4946  64.8882 0012335   2.1871 357.9405 15.00189311866119
SL-14 R/B               
1 21423U 91042B   26088.07000912  .00000523  00000+0  63049-4 0  9996
2 21423  82.4956 202.0127 0017235 172.6233 187.5238 14.81848936855941
